H1 CPF 01  gfz 2021 10 27 00  8001 terrasarx 
H2 0702601  6201 31698    2021 10 27 00 59 42 2021 11 01 00 00 42   120 1 1  0 0 0
H9
10 0 59515  66222.000000  0    5852275.989    -90616.681  -3641315.893
10 0 59515  66342.000000  0    6270880.978   -290865.609  -2845898.722
10 0 59515  66462.000000  0    6576661.957   -492382.430  -2000522.878
10 0 59515  66582.000000  0    6764208.328   -689624.826  -1119996.300
10 0 59515  66702.000000  0    6830277.216   -877044.463   -219775.082
10 0 59515  66822.000000  0    6773859.029  -1049224.356    684312.662
10 0 59515  66942.000000  0    6596198.506  -1201015.143   1576352.951
10 0 59515  67062.000000  0    6300770.871  -1327666.889   2440634.772
10 0 59515  67182.000000  0    5893211.501  -1424951.945   3261936.778
10 0 59515  67302.000000  0    5381202.367  -1489276.201   4025801.908
10 0 59515  67422.000000  0    4774318.971  -1517777.042   4718796.480
10 0 59515  67542.000000  0    4083841.452  -1508403.647   5328747.710
10 0 59515  67662.000000  0    3322535.844  -1459978.522   5844956.573
10 0 59515  67782.000000  0    2504408.830  -1372240.091   6258381.818
10 0 59515  67902.000000  0    1644443.827  -1245865.072   6561792.271
10 0 59515  68022.000000  0     758322.192  -1082470.472   6749888.029
10 0 59515  68142.000000  0    -137865.594   -884594.068   6819387.149
10 0 59515  68262.000000  0   -1027912.043   -655654.810   6769077.900
10 0 59515  68382.000000  0   -1895784.196   -399893.903   6599838.062
10 0 59515  68502.000000  0   -2725910.825   -122296.663   6314620.568
10 0 59515  68622.000000  0   -3503461.406    171503.335   5918406.349
10 0 59515  68742.000000  0   -4214613.583    475336.220   5418123.437
10 0 59515  68862.000000  0   -4846803.956    782622.180   4822531.775
10 0 59515  68982.000000  0   -5388957.414   1086510.110   4142075.668
10 0 59515  69102.000000  0   -5831689.735   1380026.029   3388704.039
10 0 59515  69222.000000  0   -6167478.808   1656227.862   2575662.750
10 0 59515  69342.000000  0   -6390801.663   1908363.078   1717261.174
10 0 59515  69462.000000  0   -6498233.603   2130025.617    828616.767
10 0 59515  69582.000000  0   -6488505.250   2315308.446    -74618.614
10 0 59515  69702.000000  0   -6362515.369   2458946.441   -976543.123
10 0 59515  69822.000000  0   -6123299.987   2556446.694  -1861293.640
10 0 59515  69942.000000  0   -5775959.214   2604203.595  -2713333.080
10 0 59515  70062.000000  0   -5327541.752   2599595.005  -3517730.356
10 0 59515  70182.000000  0   -4786891.873   2541056.431  -4260424.733
10 0 59515  70302.000000  0   -4164464.359   2428132.796  -4928470.324
10 0 59515  70422.000000  0   -3472111.804   2261506.962  -5510255.970
10 0 59515  70542.000000  0   -2722851.516   2043005.272  -5995697.676
10 0 59515  70662.000000  0   -1930616.416   1775580.066  -6376403.759
10 0 59515  70782.000000  0   -1109992.829   1463269.107  -6645808.378
10 0 59515  70902.000000  0    -275954.090   1111133.671  -6799273.015
10 0 59515  71022.000000  0     556407.374    725176.728  -6834157.119
10 0 59515  71142.000000  0    1372145.769    312242.840  -6749860.188
10 0 59515  71262.000000  0    2156725.558   -120100.866  -6547831.623
10 0 59515  71382.000000  0    2896274.364   -563699.657  -6231547.871
10 0 59515  71502.000000  0    3577825.146  -1009960.588  -5806459.219
10 0 59515  71622.000000  0    4189541.695  -1450013.867  -5279904.630
10 0 59515  71742.000000  0    4720927.131  -1874885.405  -4660997.433
10 0 59515  71862.000000  0    5163010.130  -2275677.399  -3960478.421
10 0 59515  71982.000000  0    5508504.785  -2643752.446  -3190539.339
10 0 59515  72102.000000  0    5751941.240  -2970917.835  -2364617.700
10 0 59515  72222.000000  0    5889762.328  -3249605.744  -1497165.197
10 0 59515  72342.000000  0    5920383.688  -3473044.776   -603394.924
10 0 59515  72462.000000  0    5844215.588  -3635419.082    300989.235
10 0 59515  72582.000000  0    5663644.657  -3732010.248   1200074.776
10 0 59515  72702.000000  0    5382976.146  -3759318.884   2078029.933
10 0 59515  72822.000000  0    5008335.028  -3715159.699   2919392.174
10 0 59515  72942.000000  0    4547531.701  -3598730.128   3709347.575
10 0 59515  73062.000000  0    4009896.147  -3410649.919   4433996.983
10 0 59515  73182.000000  0    3406083.839  -3152972.624   5080604.460
10 0 59515  73302.000000  0    2747856.774  -2829166.361   5637821.207
10 0 59515  73422.000000  0    2047848.540  -2444065.614   6095881.738
10 0 59515  73542.000000  0    1319316.531  -2003796.378   6446769.946
10 0 59515  73662.000000  0     575887.526  -1515675.973   6684353.244
10 0 59515  73782.000000  0    -168698.753   -988088.922   6804483.635
10 0 59515  73902.000000  0    -900843.305   -430341.429   6805065.019
10 0 59515  74022.000000  0   -1607334.932    147502.732   6686086.982
10 0 59515  74142.000000  0   -2275587.583    734803.330   6449625.046
10 0 59515  74262.000000  0   -2893864.219   1320538.677   6099806.948
10 0 59515  74382.000000  0   -3451483.967   1893511.418   5642745.441
10 0 59515  74502.000000  0   -3939010.075   2442562.413   5086438.306
10 0 59515  74622.000000  0   -4348414.862   2956789.746   4440634.607
10 0 59515  74742.000000  0   -4673218.298   3425767.129   3716668.398
10 0 59515  74862.000000  0   -4908596.613   3839757.500   2927262.410
10 0 59515  74982.000000  0   -5051458.333   4189918.079   2086305.206
10 0 59515  75102.000000  0   -5100487.005   4468492.044   1208604.503
10 0 59515  75222.000000  0   -5056146.974   4668980.543    309619.936
10 0 59515  75342.000000  0   -4920653.193   4786289.489   -594816.585
10 0 59515  75462.000000  0   -4697906.356   4816850.374  -1488788.785
10 0 59515  75582.000000  0   -4393391.852   4758710.110  -2356586.135
10 0 59515  75702.000000  0   -4014048.033   4611586.338  -3182987.475
10 0 59515  75822.000000  0   -3568106.357   4376888.117  -3953532.651
10 0 59515  75942.000000  0   -3064908.592   4057702.696  -4654775.132
10 0 59515  76062.000000  0   -2514707.175   3658749.699  -5274511.629
10 0 59515  76182.000000  0   -1928454.392   3186305.821  -5801986.868
10 0 59515  76302.000000  0   -1317582.705   2648099.873  -6228071.695
10 0 59515  76422.000000  0    -693781.525   2053180.415  -6545410.017
10 0 59515  76542.000000  0     -68775.860   1411761.074  -6748533.939
10 0 59515  76662.000000  0     545889.348    735045.322  -6833948.164
10 0 59515  76782.000000  0    1139057.293     35034.167  -6800184.773
10 0 59515  76902.000000  0    1700157.944   -675682.887  -6647825.429
10 0 59515  77022.000000  0    2219391.396  -1384148.653  -6379491.187
10 0 59515  77142.000000  0    2687896.001  -2077268.399  -5999802.602
10 0 59515  77262.000000  0    3097898.542  -2742046.178  -5515309.208
10 0 59515  77382.000000  0    3442845.693  -3365827.291  -4934388.845
10 0 59515  77502.000000  0    3717512.272  -3936540.342  -4267111.877
10 0 59515  77622.000000  0    3918083.268  -4442931.942  -3525076.579
10 0 59515  77742.000000  0    4042210.903  -4874792.803  -2721217.256
10 0 59515  77862.000000  0    4089044.472  -5223170.386  -1869584.606
10 0 59515  77982.000000  0    4059229.058  -5480561.436   -985100.809
10 0 59515  78102.000000  0    3954874.430  -5641078.342    -83295.474
10 0 59515  78222.000000  0    3779493.356  -5700585.551    819973.071
10 0 59515  78342.000000  0    3537911.379  -5656802.130   1708804.446
10 0 59515  78462.000000  0    3236149.633  -5509366.274   2567546.358
10 0 59515  78582.000000  0    2881282.476  -5259860.267   3381077.981
10 0 59515  78702.000000  0    2481276.041  -4911797.231   4135082.435
10 0 59515  78822.000000  0    2044811.643  -4470568.761   4816302.932
10 0 59515  78942.000000  0    1581097.481  -3943355.140   5412777.236
10 0 59515  79062.000000  0    1099674.176  -3339000.898   5914046.772
10 0 59515  79182.000000  0     610216.938  -2667857.973   6311335.756
10 0 59515  79302.000000  0     122340.782  -1941602.197   6597697.763
10 0 59515  79422.000000  0    -354587.386  -1173026.616   6768130.224
10 0 59515  79542.000000  0    -811627.250   -375814.579   6819657.691
10 0 59515  79662.000000  0   -1240431.552    435704.975   6751380.626
10 0 59515  79782.000000  0   -1633398.011   1246814.677   6564489.766
10 0 59515  79902.000000  0   -1983803.828   2042674.631   6262246.522
10 0 59515  80022.000000  0   -2285921.402   2808593.298   5849929.738
10 0 59515  80142.000000  0   -2535112.772   3530299.573   5334748.853
10 0 59515  80262.000000  0   -2727902.296   4194211.346   4725724.888
10 0 59515  80382.000000  0   -2862026.230   4787696.677   4033538.464
10 0 59515  80502.000000  0   -2936456.963   5299321.467   3270346.431
10 0 59515  80622.000000  0   -2951401.390   5719077.799   2449569.208
10 0 59515  80742.000000  0   -2908273.555   6038586.981   1585653.235
10 0 59515  80862.000000  0   -2809641.965   6251273.106    693812.734
10 0 59515  80982.000000  0   -2659152.293   6352502.861   -210244.574
10 0 59515  81102.000000  0   -2461428.121   6339687.405  -1110602.692
10 0 59515  81222.000000  0   -2221951.762   6212343.033  -1991428.643
10 0 59515  81342.000000  0   -1946926.112   5972105.197  -2837261.025
10 0 59515  81462.000000  0   -1643123.832   5622700.404  -3633284.679
10 0 59515  81582.000000  0   -1317728.963   5169879.173  -4365591.349
10 0 59515  81702.000000  0    -978173.804   4621309.438  -5021420.306
10 0 59515  81822.000000  0    -631975.259   3986436.280  -5589374.508
10 0 59515  81942.000000  0    -286573.539   3276310.068  -6059611.235
10 0 59515  82062.000000  0      50823.229   2503385.784  -6424002.698
10 0 59515  82182.000000  0     373384.327   1681300.116  -6676264.168
10 0 59515  82302.000000  0     674789.724    824631.346  -6812052.598
10 0 59515  82422.000000  0     949349.992    -51356.488  -6829033.539
10 0 59515  82542.000000  0    1192110.371   -930980.802  -6726916.578
10 0 59515  82662.000000  0    1398937.487  -1798414.541  -6507458.116
99
